[{"OBJECT_NAME":"STARLINK-2501","OBJECT_ID":"2021-036BG","EPOCH":"2026-03-10T00:00:02.999808","MEAN_MOTION":15.29218033,"ECCENTRICITY":0.00014517,"INCLINATION":53.1521,"RA_OF_ASC_NODE":99.2979,"ARG_OF_PERICENTER":95.6918,"MEAN_ANOMALY":344.596,"EPHEMERIS_TYPE":0,"CLASSIFICATION_TYPE":"U","NORAD_CAT_ID":48330,"ELEMENT_SET_NO":999,"REV_AT_EPOCH":579,"BSTAR":0.0042586451,"MEAN_MOTION_DOT":0.00124074,"MEAN_MOTION_DDOT":0},{"OBJECT_NAME":"STARLINK-30327","OBJECT_ID":"2023-129K","EPOCH":"2026-03-09T12:25:28.993152","MEAN_MOTION":15.26626807,"ECCENTRICITY":0.00230309,"INCLINATION":42.9974,"RA_OF_ASC_NODE":85.9834,"ARG_OF_PERICENTER":70.832,"MEAN_ANOMALY":289.5022,"EPHEMERIS_TYPE":0,"CLASSIFICATION_TYPE":"U","NORAD_CAT_ID":57707,"ELEMENT_SET_NO":999,"REV_AT_EPOCH":14090,"BSTAR":0.00029313824,"MEAN_MOTION_DOT":7.635e-5,"MEAN_MOTION_DDOT":0}]
